[{"OBJECT_NAME":"COSMOS 2416 (RODNIK-S 1)","OBJECT_ID":"2005-048A","EPOCH":"2026-03-09T21:52:55.501536","MEAN_MOTION":12.55596711,"ECCENTRICITY":0.00089122,"INCLINATION":82.4736,"RA_OF_ASC_NODE":11.1411,"ARG_OF_PERICENTER":35.8698,"MEAN_ANOMALY":25.1897,"EPHEMERIS_TYPE":0,"CLASSIFICATION_TYPE":"U","NORAD_CAT_ID":28908,"ELEMENT_SET_NO":999,"REV_AT_EPOCH":92644,"BSTAR":0.00028202479,"MEAN_MOTION_DOT":5.6e-7,"MEAN_MOTION_DDOT":0},{"OBJECT_NAME":"LARES","OBJECT_ID":"2012-006A","EPOCH":"2026-03-09T21:40:03.905472","MEAN_MOTION":12.54932279,"ECCENTRICITY":0.00073453,"INCLINATION":69.4885,"RA_OF_ASC_NODE":101.835,"ARG_OF_PERICENTER":150.069,"MEAN_ANOMALY":210.0758,"EPHEMERIS_TYPE":0,"CLASSIFICATION_TYPE":"U","NORAD_CAT_ID":38077,"ELEMENT_SET_NO":999,"REV_AT_EPOCH":64461,"BSTAR":-7.5970423e-5,"MEAN_MOTION_DOT":-5.1e-7,"MEAN_MOTION_DDOT":0}]
